GLOBALSTAR M057         
1 25943U 99058A   25166.89001919 -.00000050  00000+0  39064-3 0  9991
2 25943  52.0002 351.8863 0003004  30.3045 329.7978 12.24821896166775
GLOBALSTAR M059         
1 25944U 99058B   25166.86708646 -.00000043  00000+0  53061-3 0  9995
2 25944  51.9992 210.7457 0000568 269.2312 261.7908 11.99979778573882
GLOBALSTAR M056         
1 25945U 99058C   25166.87197433  .00000001  00000+0  10300-2 0  9994
2 25945  51.9940 212.7256 0001330 181.6069 349.5133 12.04781737162465
GLOBALSTAR M031         
1 25946U 99058D   25166.92532339 -.00000154  00000+0 -64614-3 0  9998
2 25946  51.9957 104.9841 0000932 163.7988 229.7723 12.16036255164393
GLOBALSTAR M039         
1 25961U 99062A   25166.58135677 -.00000040  00000+0  35577-3 0  9995
2 25961  51.9850 273.6088 0002166 353.3562   6.7275 12.62328288180041
GLOBALSTAR M034         
1 25962U 99062B   25166.67021352 -.00000042  00000+0  61615-3 0  9994
2 25962  51.9895  15.3303 0014805  40.4124 349.5019 11.79447189138218
GLOBALSTAR M029         
1 25963U 99062C   25166.84443243 -.00000070  00000+0  19720-3 0  9992
2 25963  51.9801  98.8417 0002566 104.0069 289.8344 11.99897713168960
GLOBALSTAR M061         
1 25964U 99062D   25166.87461437 -.00000117  00000+0 -60850-3 0  9994
2 25964  51.9767 198.8177 0005990 319.1595 212.4183 11.76775810121020
